{
"type": "FeatureCollection",
"name": "booths",
"crs": { "type": "name", "properties": { "name": "urn:ogc:def:crs:EPSG::7844" } },
"features": [
{ "type": "Feature", "properties": { "StateCo": 4, "StateAb": "QLD", "DivName": "Griffith", "DivId": 163, "DivCo": 13, "PPName": "Brisbane City (Griffith)", "Status": "Current", "PremisesName": "Brisbane City Hall", "Address1": "64 Adelaide St", "Address2": null, "Address3": null, "Locality": "BRISBANE CITY", "AddrStateAb": "QLD", "Postcode": 4000, "PPId": 14217, "AdvPremisesName": "Brisbane City Hall", "AdvAddress": "64 Adelaide St", "AdvLocality": "BRISBANE CITY", "AdvBoothLocation": "Multi-purpose room", "AdvGateAccess": "King George Square ", "EntrancesDesc": "Entrance via King George Square.", "Lat": -27.468704771540363, "Long": 153.02385301141018 }, "geometry": { "type": "Point", "coordinates": [ 153.023853011410182, -27.468704771540363 ] } },
{ "type": "Feature", "properties": { "StateCo": 4, "StateAb": "QLD", "DivName": "Griffith", "DivId": 163, "DivCo": 13, "PPName": "Bulimba", "Status": "Current", "PremisesName": "St John's Anglican Church", "Address1": "171 Oxford St", "Address2": null, "Address3": null, "Locality": "BULIMBA", "AddrStateAb": "QLD", "Postcode": 4171, "PPId": 5567, "AdvPremisesName": "St John's Anglican Church", "AdvAddress": "171 Oxford St", "AdvLocality": "BULIMBA", "AdvBoothLocation": "Church Hall", "AdvGateAccess": "Oxford St", "EntrancesDesc": "Footpath entrance from Oxford St", "Lat": -27.451713126683646, "Long": 153.06014679297624 }, "geometry": { "type": "Point", "coordinates": [ 153.060146792976241, -27.451713126683646 ] } },
{ "type": "Feature", "properties": { "StateCo": 4, "StateAb": "QLD", "DivName": "Griffith", "DivId": 163, "DivCo": 13, "PPName": "Bulimba Heights ", "Status": "Current", "PremisesName": "Bulimba State School", "Address1": "271 Oxford St", "Address2": null, "Address3": null, "Locality": "BULIMBA", "AddrStateAb": "QLD", "Postcode": 4171, "PPId": 58814, "AdvPremisesName": "Bulimba State School", "AdvAddress": "271 Oxford St", "AdvLocality": "BULIMBA", "AdvBoothLocation": "School Hall", "AdvGateAccess": "Oxford St", "EntrancesDesc": "Footpath entrance from Oxford St", "Lat": -27.452268059479064, "Long": 153.06477868545835 }, "geometry": { "type": "Point", "coordinates": [ 153.06477868545835, -27.452268059479064 ] } },
{ "type": "Feature", "properties": { "StateCo": 4, "StateAb": "QLD", "DivName": "Griffith", "DivId": 163, "DivCo": 13, "PPName": "Bulimba South", "Status": "Current", "PremisesName": "Bulimba Community Centre", "Address1": "1 Barramul St", "Address2": null, "Address3": null, "Locality": "BULIMBA", "AddrStateAb": "QLD", "Postcode": 4171, "PPId": 5564, "AdvPremisesName": "Bulimba Community Centre", "AdvAddress": "1 Barramul St", "AdvLocality": "BULIMBA", "AdvBoothLocation": "Hall", "AdvGateAccess": "Barramul St", "EntrancesDesc": "Footpath entrance from Barramul St", "Lat": -27.45348, "Long": 153.05776 }, "geometry": { "type": "Point", "coordinates": [ 153.05776, -27.45348 ] } },
{ "type": "Feature", "properties": { "StateCo": 4, "StateAb": "QLD", "DivName": "Griffith", "DivId": 163, "DivCo": 13, "PPName": "Buranda (Griffith)", "Status": "Current", "PremisesName": "St Philip's Anglican Church", "Address1": "115 Cornwall St", "Address2": null, "Address3": null, "Locality": "ANNERLEY", "AddrStateAb": "QLD", "Postcode": 4103, "PPId": 94619, "AdvPremisesName": "St Philip's Anglican Church", "AdvAddress": "115 Cornwall St", "AdvLocality": "ANNERLEY", "AdvBoothLocation": "Church Hall", "AdvGateAccess": "Emperor St", "EntrancesDesc": "Emperor St entry.", "Lat": -27.501575, "Long": 153.036579 }, "geometry": { "type": "Point", "coordinates": [ 153.036579, -27.501575 ] } },
{ "type": "Feature", "properties": { "StateCo": 4, "StateAb": "QLD", "DivName": "Griffith", "DivId": 163, "DivCo": 13, "PPName": "Camp Hill", "Status": "Current", "PremisesName": "Camp Hill State School", "Address1": "676 Old Cleveland Rd", "Address2": null, "Address3": null, "Locality": "CAMP HILL", "AddrStateAb": "QLD", "Postcode": 4152, "PPId": 5569, "AdvPremisesName": "Camp Hill State School", "AdvAddress": "676 Old Cleveland Rd", "AdvLocality": "CAMP HILL", "AdvBoothLocation": "Hall", "AdvGateAccess": "Wiles St", "EntrancesDesc": "Footpath from Wiles St", "Lat": -27.49265, "Long": 153.07859 }, "geometry": { "type": "Point", "coordinates": [ 153.07859, -27.49265 ] } },
{ "type": "Feature", "properties": { "StateCo": 4, "StateAb": "QLD", "DivName": "Griffith", "DivId": 163, "DivCo": 13, "PPName": "Cannon Hill", "Status": "Current", "PremisesName": "St Oliver Plunkett Church", "Address1": "21 Beauvardia St", "Address2": null, "Address3": null, "Locality": "CANNON HILL", "AddrStateAb": "QLD", "Postcode": 4170, "PPId": 5570, "AdvPremisesName": "St Oliver Plunkett Church", "AdvAddress": "21 Beauvardia St", "AdvLocality": "CANNON HILL", "AdvBoothLocation": "Church Hall", "AdvGateAccess": "Beauvardia St", "EntrancesDesc": "Footpath entrance from Beauvardia St", "Lat": -27.4699, "Long": 153.084 }, "geometry": { "type": "Point", "coordinates": [ 153.084, -27.4699 ] } },
{ "type": "Feature", "properties": { "StateCo": 4, "StateAb": "QLD", "DivName": "Griffith", "DivId": 163, "DivCo": 13, "PPName": "Cannon Hill Central", "Status": "Current", "PremisesName": "Cannon Hill School of Arts", "Address1": "958 Wynnum Rd", "Address2": null, "Address3": null, "Locality": "CANNON HILL", "AddrStateAb": "QLD", "Postcode": 4170, "PPId": 83723, "AdvPremisesName": "Cannon Hill School of Arts", "AdvAddress": "958 Wynnum Rd", "AdvLocality": "CANNON HILL", "AdvBoothLocation": "Hall", "AdvGateAccess": "Wynnum Rd", "EntrancesDesc": "Carpark entrance from Wynnum Rd", "Lat": -27.468246316016639, "Long": 153.0896632297794 }, "geometry": { "type": "Point", "coordinates": [ 153.089663229779404, -27.468246316016639 ] } },
{ "type": "Feature", "properties": { "StateCo": 4, "StateAb": "QLD", "DivName": "Griffith", "DivId": 163, "DivCo": 13, "PPName": "Carina ", "Status": "Current", "PremisesName": "Mayfield State School", "Address1": "37 Paget St", "Address2": null, "Address3": null, "Locality": "CARINA", "AddrStateAb": "QLD", "Postcode": 4152, "PPId": 5571, "AdvPremisesName": "Mayfield State School", "AdvAddress": "37 Paget St", "AdvLocality": "CARINA", "AdvBoothLocation": "Hall", "AdvGateAccess": "Corfield St", "EntrancesDesc": "Driveway entrance from Corfield St (Main gate in Paget St will be locked)", "Lat": -27.48419, "Long": 153.09246 }, "geometry": { "type": "Point", "coordinates": [ 153.09246, -27.48419 ] } },
{ "type": "Feature", "properties": { "StateCo": 4, "StateAb": "QLD", "DivName": "Griffith", "DivId": 163, "DivCo": 13, "PPName": "Carina Heights", "Status": "Current", "PremisesName": "Salvation Army Hall", "Address1": "202 Gallipoli Rd", "Address2": null, "Address3": null, "Locality": "CARINA HEIGHTS", "AddrStateAb": "QLD", "Postcode": 4152, "PPId": 64623, "AdvPremisesName": "Salvation Army Hall", "AdvAddress": "202 Gallipoli Rd", "AdvLocality": "CARINA HEIGHTS", "AdvBoothLocation": "Hall", "AdvGateAccess": "Chataway St", "EntrancesDesc": "Footpath entrance from Chataway St", "Lat": -27.5057, "Long": 153.093 }, "geometry": { "type": "Point", "coordinates": [ 153.093, -27.5057 ] } },
{ "type": "Feature", "properties": { "StateCo": 4, "StateAb": "QLD", "DivName": "Griffith", "DivId": 163, "DivCo": 13, "PPName": "Carindale (Griffith)", "Status": "Current", "PremisesName": "Carina State School", "Address1": "1413 Creek Rd", "Address2": null, "Address3": null, "Locality": "CARINDALE", "AddrStateAb": "QLD", "Postcode": 4152, "PPId": 37578, "AdvPremisesName": "Carina State School", "AdvAddress": "Cnr Cuthred St & Creek Rd", "AdvLocality": "CARINDALE", "AdvBoothLocation": "School Hall", "AdvGateAccess": "Cuthred St ", "EntrancesDesc": "Gate entrance from car park in Cuthred St", "Lat": -27.493490897778326, "Long": 153.10204392910626 }, "geometry": { "type": "Point", "coordinates": [ 153.102043929106259, -27.493490897778326 ] } },
{ "type": "Feature", "properties": { "StateCo": 4, "StateAb": "QLD", "DivName": "Griffith", "DivId": 163, "DivCo": 13, "PPName": "Coorparoo", "Status": "Current", "PremisesName": "Coorparoo State School", "Address1": "327 Old Cleveland Rd", "Address2": null, "Address3": null, "Locality": "COORPAROO", "AddrStateAb": "QLD", "Postcode": 4151, "PPId": 8865, "AdvPremisesName": "Coorparoo State School", "AdvAddress": "327 Old Cleveland Rd", "AdvLocality": "COORPAROO", "AdvBoothLocation": "School Hall", "AdvGateAccess": "Old Cleveland Rd", "EntrancesDesc": "Footpath entrance from Old Cleveland Rd", "Lat": -27.494248111589862, "Long": 153.06030456822066 }, "geometry": { "type": "Point", "coordinates": [ 153.060304568220658, -27.494248111589862 ] } },
{ "type": "Feature", "properties": { "StateCo": 4, "StateAb": "QLD", "DivName": "Griffith", "DivId": 163, "DivCo": 13, "PPName": "Coorparoo Central", "Status": "Current", "PremisesName": "Faith Works Uniting Community", "Address1": "260 Cavendish Rd", "Address2": null, "Address3": null, "Locality": "COORPAROO", "AddrStateAb": "QLD", "Postcode": 4151, "PPId": 32457, "AdvPremisesName": "Faith Works Uniting Community", "AdvAddress": "260 Cavendish Rd", "AdvLocality": "COORPAROO", "AdvBoothLocation": "Church Hall", "AdvGateAccess": "York St", "EntrancesDesc": "Footpath entrance from York St", "Lat": -27.49929, "Long": 153.06243 }, "geometry": { "type": "Point", "coordinates": [ 153.06243, -27.49929 ] } },
{ "type": "Feature", "properties": { "StateCo": 4, "StateAb": "QLD", "DivName": "Griffith", "DivId": 163, "DivCo": 13, "PPName": "Coorparoo South ", "Status": "Current", "PremisesName": "St Stephen's Anglican Church Coorparoo", "Address1": "343 Cavendish Rd", "Address2": null, "Address3": null, "Locality": "COORPAROO", "AddrStateAb": "QLD", "Postcode": 4151, "PPId": 6310, "AdvPremisesName": "St Stephen's Anglican Church Coorparoo", "AdvAddress": "343 Cavendish Rd", "AdvLocality": "COORPAROO", "AdvBoothLocation": "Church Hall", "AdvGateAccess": "Cavendish Rd", "EntrancesDesc": "Footpath entrance from Cavendish Rd. Carpark entrance from Stirrat St.", "Lat": -27.50496551, "Long": 153.06112528 }, "geometry": { "type": "Point", "coordinates": [ 153.06112528, -27.50496551 ] } },
{ "type": "Feature", "properties": { "StateCo": 4, "StateAb": "QLD", "DivName": "Griffith", "DivId": 163, "DivCo": 13, "PPName": "Dutton Park", "Status": "Current", "PremisesName": "St Ita's School", "Address1": "249 Gladstone Rd", "Address2": null, "Address3": null, "Locality": "DUTTON PARK", "AddrStateAb": "QLD", "Postcode": 4102, "PPId": 5574, "AdvPremisesName": "St Ita's School", "AdvAddress": "249 Gladstone Rd", "AdvLocality": "DUTTON PARK", "AdvBoothLocation": "Classroom", "AdvGateAccess": "Pope st", "EntrancesDesc": "Entrance gate from Pope St", "Lat": -27.4946, "Long": 153.023 }, "geometry": { "type": "Point", "coordinates": [ 153.023, -27.4946 ] } },
{ "type": "Feature", "properties": { "StateCo": 4, "StateAb": "QLD", "DivName": "Griffith", "DivId": 163, "DivCo": 13, "PPName": "East Brisbane", "Status": "Current", "PremisesName": "St Paul's Anglican Church Hall", "Address1": "554 Vulture St E", "Address2": null, "Address3": null, "Locality": "EAST BRISBANE", "AddrStateAb": "QLD", "Postcode": 4169, "PPId": 5575, "AdvPremisesName": "St Paul's Anglican Church Hall", "AdvAddress": "554 Vulture St E", "AdvLocality": "EAST BRISBANE", "AdvBoothLocation": "Church Hall", "AdvGateAccess": "Vulture St E", "EntrancesDesc": "Driveway entrance from Vulture St E", "Lat": -27.4855011070375, "Long": 153.044539820144 }, "geometry": { "type": "Point", "coordinates": [ 153.044539820143996, -27.4855011070375 ] } },
{ "type": "Feature", "properties": { "StateCo": 4, "StateAb": "QLD", "DivName": "Griffith", "DivId": 163, "DivCo": 13, "PPName": "Greenmeadows (Griffith) ", "Status": "Current", "PremisesName": "Living Faith Uniting Church", "Address1": "330 Pine Mountain Rd", "Address2": null, "Address3": null, "Locality": "CARINA HEIGHTS", "AddrStateAb": "QLD", "Postcode": 4152, "PPId": 12016, "AdvPremisesName": "Living Faith Uniting Church", "AdvAddress": "330 Pine Mountain Rd", "AdvLocality": "CARINA HEIGHTS", "AdvBoothLocation": "Church Hall", "AdvGateAccess": "Pine Mountain Rd", "EntrancesDesc": "Carpark entrance off Pine Mountain Rd.", "Lat": -27.5171105524919, "Long": 153.09629561058699 }, "geometry": { "type": "Point", "coordinates": [ 153.096295610586992, -27.5171105524919 ] } },
{ "type": "Feature", "properties": { "StateCo": 4, "StateAb": "QLD", "DivName": "Griffith", "DivId": 163, "DivCo": 13, "PPName": "Greenslopes", "Status": "Current", "PremisesName": "Greenslopes Baptist Church", "Address1": "43 Dunellan St", "Address2": null, "Address3": null, "Locality": "GREENSLOPES", "AddrStateAb": "QLD", "Postcode": 4120, "PPId": 12056, "AdvPremisesName": "Greenslopes Baptist Church", "AdvAddress": "43 Dunellan St", "AdvLocality": "GREENSLOPES", "AdvBoothLocation": "Church Hall", "AdvGateAccess": "Dunellan St", "EntrancesDesc": "Footpath entrance from Dunellan St", "Lat": -27.506852071501072, "Long": 153.04815070000572 }, "geometry": { "type": "Point", "coordinates": [ 153.048150700005721, -27.506852071501072 ] } },
{ "type": "Feature", "properties": { "StateCo": 4, "StateAb": "QLD", "DivName": "Griffith", "DivId": 163, "DivCo": 13, "PPName": "Hill End ", "Status": "Current", "PremisesName": "St Francis' Church Hall", "Address1": "47 Dornoch Tce", "Address2": null, "Address3": null, "Locality": "WEST END", "AddrStateAb": "QLD", "Postcode": 4101, "PPId": 32494, "AdvPremisesName": "St Francis' Church Hall", "AdvAddress": "47 Dornoch Tce", "AdvLocality": "WEST END", "AdvBoothLocation": "Church Hall", "AdvGateAccess": "Dornoch Tce", "EntrancesDesc": "Carpark entrance from Dornoch Tce", "Lat": -27.487442963474599, "Long": 153.00889538372701 }, "geometry": { "type": "Point", "coordinates": [ 153.008895383727008, -27.487442963474599 ] } },
{ "type": "Feature", "properties": { "StateCo": 4, "StateAb": "QLD", "DivName": "Griffith", "DivId": 163, "DivCo": 13, "PPName": "Holland Park Central", "Status": "Current", "PremisesName": "Holland Park State School", "Address1": "59 Abbotsleigh St", "Address2": null, "Address3": null, "Locality": "HOLLAND PARK", "AddrStateAb": "QLD", "Postcode": 4121, "PPId": 6316, "AdvPremisesName": "Holland Park State School", "AdvAddress": "59 Abbotsleigh St", "AdvLocality": "HOLLAND PARK", "AdvBoothLocation": "School Hall", "AdvGateAccess": "Abbotsleigh St", "EntrancesDesc": "Footpath entrance from Abbotsleigh St", "Lat": -27.513576, "Long": 153.062656 }, "geometry": { "type": "Point", "coordinates": [ 153.062656, -27.513576 ] } },
{ "type": "Feature", "properties": { "StateCo": 4, "StateAb": "QLD", "DivName": "Griffith", "DivId": 163, "DivCo": 13, "PPName": "Holland Park East", "Status": "Current", "PremisesName": "Cavendish Road State High School", "Address1": "695 Cavendish Rd", "Address2": null, "Address3": null, "Locality": "HOLLAND PARK", "AddrStateAb": "QLD", "Postcode": 4121, "PPId": 12015, "AdvPremisesName": "Cavendish Road State High School", "AdvAddress": "695 Cavendish Rd", "AdvLocality": "HOLLAND PARK", "AdvBoothLocation": "Library", "AdvGateAccess": "Cavendish Road", "EntrancesDesc": "Gate 4 on Cavendish Rd", "Lat": -27.51739066, "Long": 153.07269124000001 }, "geometry": { "type": "Point", "coordinates": [ 153.072691240000012, -27.51739066 ] } },
{ "type": "Feature", "properties": { "StateCo": 4, "StateAb": "QLD", "DivName": "Griffith", "DivId": 163, "DivCo": 13, "PPName": "Holland Park South", "Status": "Current", "PremisesName": "Seville Road State School", "Address1": "86 Roscoe St ", "Address2": null, "Address3": null, "Locality": "HOLLAND PARK", "AddrStateAb": "QLD", "Postcode": 4121, "PPId": 6331, "AdvPremisesName": "Seville Road State School", "AdvAddress": "86 Roscoe St ", "AdvLocality": "HOLLAND PARK", "AdvBoothLocation": "Library", "AdvGateAccess": "Path through gate", "EntrancesDesc": "Footpath entrance from Roscoe St", "Lat": -27.525309881446312, "Long": 153.07272441189571 }, "geometry": { "type": "Point", "coordinates": [ 153.072724411895706, -27.525309881446312 ] } },
{ "type": "Feature", "properties": { "StateCo": 4, "StateAb": "QLD", "DivName": "Griffith", "DivId": 163, "DivCo": 13, "PPName": "Holland Park West (Griffith)", "Status": "Current", "PremisesName": "Marshall Road State School", "Address1": "20 Kurts St", "Address2": null, "Address3": null, "Locality": "HOLLAND PARK WEST", "AddrStateAb": "QLD", "Postcode": 4121, "PPId": 37600, "AdvPremisesName": "Marshall Road State School", "AdvAddress": "20 Kurts St", "AdvLocality": "HOLLAND PARK WEST", "AdvBoothLocation": "School Hall", "AdvGateAccess": "Kurt St", "EntrancesDesc": "Gate and carpark entrance from Kurt St", "Lat": -27.525875224401315, "Long": 153.05898859929476 }, "geometry": { "type": "Point", "coordinates": [ 153.058988599294764, -27.525875224401315 ] } },
{ "type": "Feature", "properties": { "StateCo": 4, "StateAb": "QLD", "DivName": "Griffith", "DivId": 163, "DivCo": 13, "PPName": "Kangaroo Point", "Status": "Current", "PremisesName": "Kangaroo Point Uniting Church", "Address1": "40-46 Linton St", "Address2": null, "Address3": null, "Locality": "KANGAROO POINT", "AddrStateAb": "QLD", "Postcode": 4169, "PPId": 5578, "AdvPremisesName": "Kangaroo Point Uniting Church", "AdvAddress": "40-46 Linton St", "AdvLocality": "KANGAROO POINT", "AdvBoothLocation": "Church Hall", "AdvGateAccess": "Concrete driveway", "EntrancesDesc": "Gravel walk to church hall. 2 carparks. One on Linton Stand one on Princess St.", "Lat": -27.483658, "Long": 153.03735 }, "geometry": { "type": "Point", "coordinates": [ 153.03735, -27.483658 ] } },
{ "type": "Feature", "properties": { "StateCo": 4, "StateAb": "QLD", "DivName": "Griffith", "DivId": 163, "DivCo": 13, "PPName": "Morningside", "Status": "Current", "PremisesName": "Anglican Church of Ascension", "Address1": "706 Wynnum Rd", "Address2": null, "Address3": null, "Locality": "MORNINGSIDE", "AddrStateAb": "QLD", "Postcode": 4170, "PPId": 5582, "AdvPremisesName": "Anglican Church of Ascension", "AdvAddress": "706 Wynnum Rd", "AdvLocality": "MORNINGSIDE", "AdvBoothLocation": "Church Hall", "AdvGateAccess": "Wynnum Rd", "EntrancesDesc": "Footpath entrance from Wynnum Rd", "Lat": -27.4663738, "Long": 153.0744347 }, "geometry": { "type": "Point", "coordinates": [ 153.074434700000012, -27.4663738 ] } },
{ "type": "Feature", "properties": { "StateCo": 4, "StateAb": "QLD", "DivName": "Griffith", "DivId": 163, "DivCo": 13, "PPName": "Morningside South", "Status": "Current", "PremisesName": "Morningside State School", "Address1": "67 Pashen St", "Address2": null, "Address3": null, "Locality": "MORNINGSIDE", "AddrStateAb": "QLD", "Postcode": 4170, "PPId": 5577, "AdvPremisesName": "Morningside State School", "AdvAddress": "67 Pashen St", "AdvLocality": "MORNINGSIDE", "AdvBoothLocation": "Classroom", "AdvGateAccess": "Pashen St", "EntrancesDesc": "Gate entrance from Pashen St", "Lat": -27.4644, "Long": 153.066 }, "geometry": { "type": "Point", "coordinates": [ 153.066, -27.4644 ] } },
{ "type": "Feature", "properties": { "StateCo": 4, "StateAb": "QLD", "DivName": "Griffith", "DivId": 163, "DivCo": 13, "PPName": "Mount Gravatt East (Griffith)", "Status": "Current", "PremisesName": "Mt Gravatt East State School", "Address1": "35 Wecker Rd", "Address2": null, "Address3": null, "Locality": "MOUNT GRAVATT EAST", "AddrStateAb": "QLD", "Postcode": 4122, "PPId": 37583, "AdvPremisesName": "Mt Gravatt East State School", "AdvAddress": "35 Wecker Rd", "AdvLocality": "MOUNT GRAVATT EAST", "AdvBoothLocation": "School Hall", "AdvGateAccess": "Wecker Rd", "EntrancesDesc": "Newnham Rd Carpark - beside C&K childcare", "Lat": -27.534499036382694, "Long": 153.09498443733114 }, "geometry": { "type": "Point", "coordinates": [ 153.094984437331135, -27.534499036382694 ] } },
{ "type": "Feature", "properties": { "StateCo": 4, "StateAb": "QLD", "DivName": "Griffith", "DivId": 163, "DivCo": 13, "PPName": "Murarrie (Griffith)", "Status": "Current", "PremisesName": "Murarrie Progress Association Community Hall", "Address1": "10 Queensport Rd S", "Address2": null, "Address3": null, "Locality": "MURARRIE", "AddrStateAb": "QLD", "Postcode": 4172, "PPId": 37579, "AdvPremisesName": "Murarrie Progress Association Community Hall", "AdvAddress": "10 Queensport Rd S", "AdvLocality": "MURARRIE", "AdvBoothLocation": "Hall", "AdvGateAccess": "Queensport Rd S", "EntrancesDesc": "Path entrance from Queensport Rd", "Lat": -27.464195708977055, "Long": 153.10476932740872 }, "geometry": { "type": "Point", "coordinates": [ 153.104769327408718, -27.464195708977055 ] } },
{ "type": "Feature", "properties": { "StateCo": 4, "StateAb": "QLD", "DivName": "Griffith", "DivId": 163, "DivCo": 13, "PPName": "Norman Park", "Status": "Current", "PremisesName": "Norman Park State School", "Address1": "53 Hipwood St", "Address2": null, "Address3": null, "Locality": "NORMAN PARK", "AddrStateAb": "QLD", "Postcode": 4170, "PPId": 5586, "AdvPremisesName": "Norman Park State School", "AdvAddress": "53 Hipwood St", "AdvLocality": "NORMAN PARK", "AdvBoothLocation": "School Hall", "AdvGateAccess": "Hipwood St", "EntrancesDesc": "Gate entrance from Hipwood St", "Lat": -27.474163816295981, "Long": 153.06295066625776 }, "geometry": { "type": "Point", "coordinates": [ 153.062950666257763, -27.474163816295981 ] } },
{ "type": "Feature", "properties": { "StateCo": 4, "StateAb": "QLD", "DivName": "Griffith", "DivId": 163, "DivCo": 13, "PPName": "Norman Park South", "Status": "Current", "PremisesName": "Faith Works Uniting Community ", "Address1": "177 Bennetts Rd", "Address2": null, "Address3": null, "Locality": "NORMAN PARK", "AddrStateAb": "QLD", "Postcode": 4170, "PPId": 5585, "AdvPremisesName": "Faith Works Uniting Community ", "AdvAddress": "177 Bennetts Rd", "AdvLocality": "NORMAN PARK", "AdvBoothLocation": "Church Hall", "AdvGateAccess": "Mcilwraith St", "EntrancesDesc": "Footpath entrance from Mcilwraith St", "Lat": -27.483700789030699, "Long": 153.064513928227 }, "geometry": { "type": "Point", "coordinates": [ 153.064513928227001, -27.483700789030699 ] } },
{ "type": "Feature", "properties": { "StateCo": 4, "StateAb": "QLD", "DivName": "Griffith", "DivId": 163, "DivCo": 13, "PPName": "Seven Hills", "Status": "Current", "PremisesName": "Seven Hills State School", "Address1": "152 D'arcy Rd", "Address2": null, "Address3": null, "Locality": "SEVEN HILLS", "AddrStateAb": "QLD", "Postcode": 4170, "PPId": 5589, "AdvPremisesName": "Seven Hills State School", "AdvAddress": "152 D'arcy Rd", "AdvLocality": "SEVEN HILLS", "AdvBoothLocation": "Multi-purpose room", "AdvGateAccess": "D'Arcy Rd", "EntrancesDesc": "Footpath entrance from D'Arcy St", "Lat": -27.478675, "Long": 153.075686 }, "geometry": { "type": "Point", "coordinates": [ 153.075686, -27.478675 ] } },
{ "type": "Feature", "properties": { "StateCo": 4, "StateAb": "QLD", "DivName": "Griffith", "DivId": 163, "DivCo": 13, "PPName": "South Brisbane", "Status": "Current", "PremisesName": "Brisbane State High School", "Address1": "150 Vulture St", "Address2": null, "Address3": null, "Locality": "SOUTH BRISBANE", "AddrStateAb": "QLD", "Postcode": 4101, "PPId": 5590, "AdvPremisesName": "Brisbane State High School", "AdvAddress": "150 Vulture St", "AdvLocality": "SOUTH BRISBANE", "AdvBoothLocation": "Classroom", "AdvGateAccess": "Vulture St", "EntrancesDesc": "Footpath entrance from Vulture St", "Lat": -27.4814, "Long": 153.018 }, "geometry": { "type": "Point", "coordinates": [ 153.018, -27.4814 ] } },
{ "type": "Feature", "properties": { "StateCo": 4, "StateAb": "QLD", "DivName": "Griffith", "DivId": 163, "DivCo": 13, "PPName": "Stones Corner", "Status": "Current", "PremisesName": "St James Parish Hall", "Address1": "165 Old Cleveland Rd", "Address2": null, "Address3": null, "Locality": "COORPAROO", "AddrStateAb": "QLD", "Postcode": 4151, "PPId": 6328, "AdvPremisesName": "St James Parish Hall", "AdvAddress": "165 Old Cleveland Rd", "AdvLocality": "COORPAROO", "AdvBoothLocation": "Church Hall", "AdvGateAccess": " Kirkland Ave", "EntrancesDesc": "Footpath entrance from Kirkland Ave", "Lat": -27.499291727895201, "Long": 153.05199095760099 }, "geometry": { "type": "Point", "coordinates": [ 153.051990957600992, -27.499291727895201 ] } },
{ "type": "Feature", "properties": { "StateCo": 4, "StateAb": "QLD", "DivName": "Griffith", "DivId": 163, "DivCo": 13, "PPName": "West End ", "Status": "Current", "PremisesName": "West End State School", "Address1": "24 Vulture St", "Address2": null, "Address3": null, "Locality": "WEST END", "AddrStateAb": "QLD", "Postcode": 4101, "PPId": 5592, "AdvPremisesName": "West End State School", "AdvAddress": "24 Vulture St", "AdvLocality": "WEST END", "AdvBoothLocation": "School Hall", "AdvGateAccess": "Horan St", "EntrancesDesc": "Path entrance from Horan St", "Lat": -27.479570673334401, "Long": 153.00811778480301 }, "geometry": { "type": "Point", "coordinates": [ 153.008117784803005, -27.479570673334401 ] } },
{ "type": "Feature", "properties": { "StateCo": 4, "StateAb": "QLD", "DivName": "Griffith", "DivId": 163, "DivCo": 13, "PPName": "Whites Hill", "Status": "Current", "PremisesName": "Whites Hill State College", "Address1": "138 Burn St", "Address2": null, "Address3": null, "Locality": "CAMP HILL", "AddrStateAb": "QLD", "Postcode": 4152, "PPId": 6306, "AdvPremisesName": "Whites Hill State College", "AdvAddress": "138 Burn St", "AdvLocality": "CAMP HILL", "AdvBoothLocation": "School Hall", "AdvGateAccess": "Samuel St", "EntrancesDesc": "Gate entrance from Samuel St", "Lat": -27.500462418924688, "Long": 153.08230280012333 }, "geometry": { "type": "Point", "coordinates": [ 153.08230280012333, -27.500462418924688 ] } },
{ "type": "Feature", "properties": { "StateCo": 4, "StateAb": "QLD", "DivName": "Griffith", "DivId": 163, "DivCo": 13, "PPName": "Woolloongabba", "Status": "Current", "PremisesName": "Nazareth Lutheran Church ", "Address1": "12 Hawthorne St", "Address2": null, "Address3": null, "Locality": "WOOLLOONGABBA", "AddrStateAb": "QLD", "Postcode": 4102, "PPId": 83726, "AdvPremisesName": "Nazareth Lutheran Church ", "AdvAddress": "12 Hawthorne St", "AdvLocality": "WOOLLOONGABBA", "AdvBoothLocation": "Church Hall", "AdvGateAccess": "Hawthorne St", "EntrancesDesc": "Footpath/carpark entrance from Hawthorne St", "Lat": -27.4887294, "Long": 153.0346611 }, "geometry": { "type": "Point", "coordinates": [ 153.0346611, -27.4887294 ] } }
]
}
