{
"type": "FeatureCollection",
"name": "griffith",
"crs": { "type": "name", "properties": { "name": "urn:ogc:def:crs:EPSG::4283" } },
"features": [
{ "type": "Feature", "properties": { "E_div_numb": 13, "Elect_div": "Griffith", "Numccds": 342, "Actual": 101827, "Projected": 109442, "Total_Popu": 0, "Australian": 0, "Area_SqKm": 53.912333026719999, "Sortname": "GRIFFITH" }, "geometry": { "type": "MultiPolygon", "coordinates": [ [ [ [ 153.106651, -27.455804, 0.0 ], [ 153.106437, -27.456004, 0.0 ], [ 153.106074, -27.456301, 0.0 ], [ 153.105815, -27.456427, 0.0 ], [ 153.105521, -27.456516, 0.0 ], [ 153.10522, -27.456589, 0.0 ], [ 153.104935, -27.45663, 0.0 ], [ 153.104202, -27.456554, 0.0 ], [ 153.102331, -27.455963, 0.0 ], [ 153.101134, -27.456181, 0.0 ], [ 153.099289, -27.456743, 0.0 ], [ 153.098552, -27.456893, 0.0 ], [ 153.097978, -27.459807, 0.0 ], [ 153.097822, -27.460705, 0.0 ], [ 153.097664, -27.461603, 0.0 ], [ 153.097508, -27.462491, 0.0 ], [ 153.097424, -27.462968, 0.0 ], [ 153.097333, -27.46339, 0.0 ], [ 153.097143, -27.464276, 0.0 ], [ 153.096967, -27.465166, 0.0 ], [ 153.096789, -27.466066, 0.0 ], [ 153.096684, -27.466676, 0.0 ], [ 153.096669, -27.466762, 0.0 ], [ 153.096558, -27.467335, 0.0 ], [ 153.09649, -27.46787, 0.0 ], [ 153.096463, -27.468128, 0.0 ], [ 153.096272, -27.469435, 0.0 ], [ 153.096252, -27.469578, 0.0 ], [ 153.096411, -27.469602, 0.0 ], [ 153.096145, -27.471196, 0.0 ], [ 153.095614, -27.474004, 0.0 ], [ 153.095427, -27.474987, 0.0 ], [ 153.095264, -27.475002, 0.0 ], [ 153.09537, -27.475425, 0.0 ], [ 153.095499, -27.475754, 0.0 ], [ 153.095578, -27.475883, 0.0 ], [ 153.095973, -27.476734, 0.0 ], [ 153.096065, -27.477167, 0.0 ], [ 153.096019, -27.477715, 0.0 ], [ 153.095978, -27.478028, 0.0 ], [ 153.095935, -27.478351, 0.0 ], [ 153.095891, -27.478728, 0.0 ], [ 153.095847, -27.479088, 0.0 ], [ 153.095782, -27.479628, 0.0 ], [ 153.095506, -27.480929, 0.0 ], [ 153.095501, -27.481104, 0.0 ], [ 153.095489, -27.481236, 0.0 ], [ 153.095516, -27.481409, 0.0 ], [ 153.095588, -27.481659, 0.0 ], [ 153.095789, -27.481995, 0.0 ], [ 153.095956, -27.482197, 0.0 ], [ 153.096288, -27.482617, 0.0 ], [ 153.09641, -27.482736, 0.0 ], [ 153.096798, -27.483213, 0.0 ], [ 153.096952, -27.483383, 0.0 ], [ 153.097758, -27.484272, 0.0 ], [ 153.098015, -27.48456, 0.0 ], [ 153.098373, -27.485252, 0.0 ], [ 153.099286, -27.486803, 0.0 ], [ 153.099647, -27.487413, 0.0 ], [ 153.10003, -27.488102, 0.0 ], [ 153.100788, -27.489432, 0.0 ], [ 153.101106, -27.489989, 0.0 ], [ 153.101786, -27.491257, 0.0 ], [ 153.101867, -27.491458, 0.0 ], [ 153.101617, -27.49316, 0.0 ], [ 153.101332, -27.494996, 0.0 ], [ 153.101204, -27.495823, 0.0 ], [ 153.101095, -27.496533, 0.0 ], [ 153.10092, -27.497637, 0.0 ], [ 153.100728, -27.498847, 0.0 ], [ 153.100708, -27.499012, 0.0 ], [ 153.100307, -27.50113, 0.0 ], [ 153.100111, -27.502147, 0.0 ], [ 153.099823, -27.503641, 0.0 ], [ 153.099617, -27.504707, 0.0 ], [ 153.099527, -27.505172, 0.0 ], [ 153.099016, -27.507837, 0.0 ], [ 153.098899, -27.508359, 0.0 ], [ 153.098759, -27.50915, 0.0 ], [ 153.098563, -27.510263, 0.0 ], [ 153.098249, -27.512039, 0.0 ], [ 153.098193, -27.512357, 0.0 ], [ 153.098176, -27.512453, 0.0 ], [ 153.097924, -27.513755, 0.0 ], [ 153.0976, -27.515422, 0.0 ], [ 153.097557, -27.515641, 0.0 ], [ 153.097471, -27.516083, 0.0 ], [ 153.097382, -27.516542, 0.0 ], [ 153.097195, -27.517503, 0.0 ], [ 153.096865, -27.519437, 0.0 ], [ 153.096855, -27.519492, 0.0 ], [ 153.096639, -27.520672, 0.0 ], [ 153.096339, -27.522309, 0.0 ], [ 153.09601, -27.524067, 0.0 ], [ 153.09569, -27.525773, 0.0 ], [ 153.095605, -27.526228, 0.0 ], [ 153.095532, -27.526616, 0.0 ], [ 153.095439, -27.52711, 0.0 ], [ 153.095103, -27.528903, 0.0 ], [ 153.095005, -27.529424, 0.0 ], [ 153.094923, -27.529856, 0.0 ], [ 153.094751, -27.53073, 0.0 ], [ 153.094642, -27.531143, 0.0 ], [ 153.094533, -27.53133, 0.0 ], [ 153.094398, -27.531472, 0.0 ], [ 153.094244, -27.531597, 0.0 ], [ 153.094099, -27.53169, 0.0 ], [ 153.093945, -27.531787, 0.0 ], [ 153.093038, -27.530671, 0.0 ], [ 153.092845, -27.53042, 0.0 ], [ 153.09276, -27.530327, 0.0 ], [ 153.092561, -27.530076, 0.0 ], [ 153.091864, -27.529199, 0.0 ], [ 153.090928, -27.528021, 0.0 ], [ 153.090272, -27.527201, 0.0 ], [ 153.08881, -27.525378, 0.0 ], [ 153.088455, -27.524936, 0.0 ], [ 153.088238, -27.524668, 0.0 ], [ 153.087839, -27.524374, 0.0 ], [ 153.087284, -27.523965, 0.0 ], [ 153.08491, -27.522216, 0.0 ], [ 153.08394, -27.521501, 0.0 ], [ 153.083738, -27.521747, 0.0 ], [ 153.082081, -27.522797, 0.0 ], [ 153.080631, -27.523708, 0.0 ], [ 153.080247, -27.523955, 0.0 ], [ 153.079581, -27.524369, 0.0 ], [ 153.078984, -27.52476, 0.0 ], [ 153.078564, -27.524986, 0.0 ], [ 153.078509, -27.525021, 0.0 ], [ 153.076758, -27.52615, 0.0 ], [ 153.075815, -27.526745, 0.0 ], [ 153.075257, -27.527097, 0.0 ], [ 153.074694, -27.527453, 0.0 ], [ 153.074089, -27.527836, 0.0 ], [ 153.072931, -27.528566, 0.0 ], [ 153.072514, -27.528825, 0.0 ], [ 153.072432, -27.528877, 0.0 ], [ 153.071656, -27.529366, 0.0 ], [ 153.07043, -27.527888, 0.0 ], [ 153.070061, -27.527461, 0.0 ], [ 153.069388, -27.526747, 0.0 ], [ 153.06873, -27.526059, 0.0 ], [ 153.068067, -27.525357, 0.0 ], [ 153.067917, -27.525197, 0.0 ], [ 153.067414, -27.52466, 0.0 ], [ 153.066756, -27.52395, 0.0 ], [ 153.066152, -27.523295, 0.0 ], [ 153.065967, -27.523094, 0.0 ], [ 153.065409, -27.522534, 0.0 ], [ 153.065051, -27.522179, 0.0 ], [ 153.064225, -27.521512, 0.0 ], [ 153.06343, -27.520937, 0.0 ], [ 153.06262, -27.521401, 0.0 ], [ 153.061787, -27.521924, 0.0 ], [ 153.061091, -27.522362, 0.0 ], [ 153.060396, -27.522802, 0.0 ], [ 153.060323, -27.522835, 0.0 ], [ 153.059493, -27.523365, 0.0 ], [ 153.059334, -27.523466, 0.0 ], [ 153.058994, -27.523679, 0.0 ], [ 153.05896, -27.5237, 0.0 ], [ 153.058618, -27.523912, 0.0 ], [ 153.058119, -27.524221, 0.0 ], [ 153.057817, -27.524422, 0.0 ], [ 153.057048, -27.524902, 0.0 ], [ 153.056571, -27.52521, 0.0 ], [ 153.056511, -27.525247, 0.0 ], [ 153.056449, -27.525283, 0.0 ], [ 153.056102, -27.525484, 0.0 ], [ 153.055774, -27.525627, 0.0 ], [ 153.055648, -27.525364, 0.0 ], [ 153.05529, -27.524693, 0.0 ], [ 153.054878, -27.524053, 0.0 ], [ 153.054364, -27.523375, 0.0 ], [ 153.054293, -27.523288, 0.0 ], [ 153.054062, -27.523006, 0.0 ], [ 153.052469, -27.520999, 0.0 ], [ 153.051871, -27.520268, 0.0 ], [ 153.051516, -27.519836, 0.0 ], [ 153.050751, -27.518907, 0.0 ], [ 153.05024, -27.518426, 0.0 ], [ 153.050049, -27.518245, 0.0 ], [ 153.049613, -27.517914, 0.0 ], [ 153.049068, -27.517536, 0.0 ], [ 153.048704, -27.517315, 0.0 ], [ 153.047934, -27.516921, 0.0 ], [ 153.04665, -27.516294, 0.0 ], [ 153.044434, -27.515212, 0.0 ], [ 153.043652, -27.51483, 0.0 ], [ 153.042911, -27.514468, 0.0 ], [ 153.04243, -27.514226, 0.0 ], [ 153.042048, -27.514003, 0.0 ], [ 153.041764, -27.51382, 0.0 ], [ 153.041364, -27.51351, 0.0 ], [ 153.040964, -27.513134, 0.0 ], [ 153.040594, -27.512692, 0.0 ], [ 153.040299, -27.512238, 0.0 ], [ 153.040129, -27.511926, 0.0 ], [ 153.039052, -27.50994, 0.0 ], [ 153.039015, -27.509856, 0.0 ], [ 153.038876, -27.509544, 0.0 ], [ 153.038685, -27.509002, 0.0 ], [ 153.038639, -27.508831, 0.0 ], [ 153.038599, -27.508608, 0.0 ], [ 153.03855, -27.508328, 0.0 ], [ 153.038528, -27.507965, 0.0 ], [ 153.038516, -27.507769, 0.0 ], [ 153.03854, -27.507418, 0.0 ], [ 153.038548, -27.507296, 0.0 ], [ 153.038607, -27.50687, 0.0 ], [ 153.038615, -27.506826, 0.0 ], [ 153.038756, -27.506046, 0.0 ], [ 153.038846, -27.50556, 0.0 ], [ 153.039111, -27.504136, 0.0 ], [ 153.039336, -27.502927, 0.0 ], [ 153.039557, -27.501745, 0.0 ], [ 153.039167, -27.501691, 0.0 ], [ 153.038694, -27.501603, 0.0 ], [ 153.03814, -27.50152, 0.0 ], [ 153.037481, -27.501429, 0.0 ], [ 153.037127, -27.50138, 0.0 ], [ 153.036131, -27.501223, 0.0 ], [ 153.035495, -27.501116, 0.0 ], [ 153.035153, -27.501048, 0.0 ], [ 153.035053, -27.501022, 0.0 ], [ 153.034949, -27.501001, 0.0 ], [ 153.032339, -27.500627, 0.0 ], [ 153.031991, -27.500577, 0.0 ], [ 153.0297, -27.500251, 0.0 ], [ 153.029306, -27.500205, 0.0 ], [ 153.029213, -27.500217, 0.0 ], [ 153.028813, -27.500118, 0.0 ], [ 153.028496, -27.499997, 0.0 ], [ 153.028338, -27.500052, 0.0 ], [ 153.028239, -27.500049, 0.0 ], [ 153.028074, -27.500028, 0.0 ], [ 153.026904, -27.499837, 0.0 ], [ 153.026852, -27.499829, 0.0 ], [ 153.02678, -27.49984, 0.0 ], [ 153.026685, -27.499881, 0.0 ], [ 153.026619, -27.499927, 0.0 ], [ 153.02657, -27.49996, 0.0 ], [ 153.026536, -27.500012, 0.0 ], [ 153.026501, -27.500132, 0.0 ], [ 153.026372, -27.500807, 0.0 ], [ 153.02493, -27.500593, 0.0 ], [ 153.023466, -27.50037, 0.0 ], [ 153.023266, -27.50033, 0.0 ], [ 153.021748, -27.500406, 0.0 ], [ 153.020364, -27.496508, 0.0 ], [ 153.01874, -27.494319, 0.0 ], [ 153.016333, -27.492451, 0.0 ], [ 153.013746, -27.49133, 0.0 ], [ 153.01146, -27.490849, 0.0 ], [ 153.008452, -27.491063, 0.0 ], [ 153.004721, -27.491009, 0.0 ], [ 153.000931, -27.491276, 0.0 ], [ 152.998404, -27.490956, 0.0 ], [ 152.996659, -27.490155, 0.0 ], [ 152.995817, -27.489621, 0.0 ], [ 152.995396, -27.488393, 0.0 ], [ 152.995998, -27.486524, 0.0 ], [ 152.997141, -27.484122, 0.0 ], [ 152.999728, -27.480705, 0.0 ], [ 153.003037, -27.476914, 0.0 ], [ 153.006586, -27.473604, 0.0 ], [ 153.010317, -27.470774, 0.0 ], [ 153.013686, -27.469173, 0.0 ], [ 153.015912, -27.468639, 0.0 ], [ 153.017657, -27.469226, 0.0 ], [ 153.020123, -27.471362, 0.0 ], [ 153.022229, -27.474351, 0.0 ], [ 153.025117, -27.477982, 0.0 ], [ 153.026922, -27.479797, 0.0 ], [ 153.029028, -27.480651, 0.0 ], [ 153.031073, -27.480385, 0.0 ], [ 153.032156, -27.47905, 0.0 ], [ 153.033059, -27.476594, 0.0 ], [ 153.032818, -27.473764, 0.0 ], [ 153.032517, -27.470828, 0.0 ], [ 153.032578, -27.468158, 0.0 ], [ 153.032938, -27.465916, 0.0 ], [ 153.033179, -27.464421, 0.0 ], [ 153.034743, -27.463727, 0.0 ], [ 153.036669, -27.463994, 0.0 ], [ 153.037812, -27.464901, 0.0 ], [ 153.038955, -27.467624, 0.0 ], [ 153.039797, -27.470774, 0.0 ], [ 153.0407, -27.473657, 0.0 ], [ 153.042264, -27.475686, 0.0 ], [ 153.044009, -27.476487, 0.0 ], [ 153.045994, -27.47638, 0.0 ], [ 153.049243, -27.475099, 0.0 ], [ 153.052311, -27.473604, 0.0 ], [ 153.054538, -27.472002, 0.0 ], [ 153.055921, -27.47008, 0.0 ], [ 153.056102, -27.468318, 0.0 ], [ 153.054538, -27.465596, 0.0 ], [ 153.052913, -27.463353, 0.0 ], [ 153.052191, -27.459402, 0.0 ], [ 153.052071, -27.455505, 0.0 ], [ 153.051048, -27.451447, 0.0 ], [ 153.049243, -27.448244, 0.0 ], [ 153.048416, -27.444306, 0.0 ], [ 153.049461, -27.442297, 0.0 ], [ 153.050943, -27.441329, 0.0 ], [ 153.054246, -27.440768, 0.0 ], [ 153.062773, -27.441445, 0.0 ], [ 153.070268, -27.443516, 0.0 ], [ 153.080142, -27.446423, 0.0 ], [ 153.092961, -27.447432, 0.0 ], [ 153.099932, -27.445258, 0.0 ], [ 153.101732, -27.446872, 0.0 ], [ 153.102715, -27.448791, 0.0 ], [ 153.103707, -27.450391, 0.0 ], [ 153.106651, -27.455804, 0.0 ] ] ] ] } }
]
}
